{
  "type": "FeatureCollection",
  "features": [
    {
      "type": "Feature",
      "geometry": {
        "type": "LineString",
        "coordinates": [
          [
            -2.453384399414063,
            50.57713235815121
          ],
          [
            -2.4475479125976567,
            50.58454456686979
          ],
          [
            -2.442398071289063,
            50.58977601184109
          ],
          [
            -2.4351882934570317,
            50.592391516360735
          ],
          [
            -2.4266052246093754,
            50.60110881533375
          ],
          [
            -2.402572631835938,
            50.60459528287803
          ]
        ]
      },
      "properties": {
        "behaviourType": "WaypointTransit",
        "platformSpeed": 5.0
      }
    },
    {
      "type": "Feature",
      "geometry": {
        "type": "Polygon",
        "coordinates": [
          [
            [
              -2.399826049804688,
              50.61701372433899
            ],
            [
              -2.360343933105469,
              50.61744939960003
            ],
            [
              -2.3593139648437504,
              50.592609468511675
            ],
            [
              -2.396049499511719,
              50.590429901593694
            ],
            [
              -2.399826049804688,
              50.61701372433899
            ]
          ]
        ]
      },
      "properties": {
        "behaviourType": "ParallelTrackSearch",
        "trackOrientation": 23.0,
        "trackSpacing": 200.0,
        "platformSpeed": 5.0
      }
    },
    {
      "type": "Feature",
      "geometry": {
        "type": "LineString",
        "coordinates": [
          [
            -2.360515594482422,
            50.59162867588599
          ],
          [
            -2.366695404052735,
            50.58923109677639
          ],
          [
            -2.379741668701172,
            50.587051373448624
          ],
          [
            -2.405662536621094,
            50.58825023376658
          ],
          [
            -2.41476058959961,
            50.58694238463331
          ],
          [
            -2.4173355102539067,
            50.58399959125814
          ],
          [
            -2.438278198242188,
            50.57898551969881
          ],
          [
            -2.4530410766601567,
            50.57517010762757
          ]
        ]
      },
      "properties": {
        "behaviourType": "WaypointTransit",
        "platformSpeed": 5.0
      }
    }
  ]
}